{"fetched_at":"2026-03-30T06:02:59Z","count":15439,"tles":[{"name":"STARLINK-3826","line1":"1 52347U 22045S   26087.79646866  .00000600  00000+0  55750-4 0  9990","line2":"2 52347  53.2173 113.3565 0001244  84.2931 275.8203 15.08842131218669","category":"Starlink"}]}